TIANMU-1 07             
1 57399U 23101A   26065.57454230  .00008352  00000+0  29795-3 0  9991
2 57399  97.2728 118.5929 0004609 142.4105 217.7458 15.29118809145964
STARLINK-32878          
1 62892U 25024P   26068.09599059  .00003959  00000+0  15336-3 0  9994
2 62892  43.0033 328.8511 0002716 258.6168 101.4379 15.27569647 62175
